[{"OBJECT_NAME":"CALSPHERE 4A","OBJECT_ID":"1965-065H","EPOCH":"2026-03-09T20:35:03.926112","MEAN_MOTION":13.36259191,"ECCENTRICITY":0.00702161,"INCLINATION":89.9031,"RA_OF_ASC_NODE":123.4695,"ARG_OF_PERICENTER":25.7531,"MEAN_ANOMALY":24.8766,"EPHEMERIS_TYPE":0,"CLASSIFICATION_TYPE":"U","NORAD_CAT_ID":1520,"ELEMENT_SET_NO":999,"REV_AT_EPOCH":94944,"BSTAR":0.00016646069,"MEAN_MOTION_DOT":9.6e-7,"MEAN_MOTION_DDOT":0},{"OBJECT_NAME":"COSMOS 2251 DEB","OBJECT_ID":"1993-036TR","EPOCH":"2026-03-09T17:08:42.195264","MEAN_MOTION":13.70649647,"ECCENTRICITY":0.03285514,"INCLINATION":74.085,"RA_OF_ASC_NODE":315.0753,"ARG_OF_PERICENTER":65.7809,"MEAN_ANOMALY":297.7272,"EPHEMERIS_TYPE":0,"CLASSIFICATION_TYPE":"U","NORAD_CAT_ID":34472,"ELEMENT_SET_NO":999,"REV_AT_EPOCH":84918,"BSTAR":0.0015683222,"MEAN_MOTION_DOT":2.021e-5,"MEAN_MOTION_DDOT":0}]
